{
    "links": {
        "self": "http://www.neowsapp.com/rest/v1/neo/54054375?api_key=iIulBulltgU6a56xZRHN4H3l9WmuAYTsLGpBGhQ2"
    },
    "id": "54054375",
    "neo_reference_id": "54054375",
    "name": "(2020 RF8)",
    "designation": "2020 RF8",
    "nasa_jpl_url": "http://ssd.jpl.nasa.gov/sbdb.cgi?sstr=54054375",
    "absolute_magnitude_h": 25.63,
    "estimated_diameter": {
        "kilometers": {
            "estimated_diameter_min": 0.0198863453,
            "estimated_diameter_max": 0.04446722
        },
        "meters": {
            "estimated_diameter_min": 19.8863453236,
            "estimated_diameter_max": 44.4672199676
        },
        "miles": {
            "estimated_diameter_min": 0.0123567983,
            "estimated_diameter_max": 0.0276306409
        },
        "feet": {
            "estimated_diameter_min": 65.2439171914,
            "estimated_diameter_max": 145.8898339584
        }
    },
    "is_potentially_hazardous_asteroid": false,
    "close_approach_data": [
        {
            "close_approach_date": "2020-08-27",
            "close_approach_date_full": "2020-Aug-27 16:18",
            "epoch_date_close_approach": 1598545080000,
            "relative_velocity": {
                "kilometers_per_second": "12.4045883249",
                "kilometers_per_hour": "44656.5179697973",
                "miles_per_hour": "27747.8236240666"
            },
            "miss_distance": {
                "astronomical": "0.0242534755",
                "lunar": "9.4346019695",
                "kilometers": "3628268.274897185",
                "miles": "2254501.363403753"
            },
            "orbiting_body": "Earth"
        }
    ],
    "orbital_data": {
        "orbit_id": "1",
        "orbit_determination_date": "2020-09-16 18:12:19",
        "first_observation_date": "2020-09-14",
        "last_observation_date": "2020-09-16",
        "data_arc_in_days": 2,
        "observations_used": 10,
        "orbit_uncertainty": "9",
        "minimum_orbit_intersection": ".00693601",
        "jupiter_tisserand_invariant": "3.334",
        "epoch_osculation": "2459108.5",
        "eccentricity": ".5953773770962676",
        "semi_major_axis": "2.291203664230633",
        "inclination": "4.523021526489777",
        "ascending_node_longitude": "146.4982298407266",
        "orbital_period": "1266.758915738339",
        "perihelion_distance": ".9270728362276413",
        "perihelion_argument": "146.2453254760895",
        "aphelion_distance": "3.655334492233624",
        "perihelion_time": "2459058.058801720622",
        "mean_anomaly": "14.33487552759168",
        "mean_motion": ".2841898292779504",
        "equinox": "J2000",
        "orbit_class": {
            "orbit_class_type": "APO",
            "orbit_class_description": "Near-Earth asteroid orbits which cross the Earth’s orbit similar to that of 1862 Apollo",
            "orbit_class_range": "a (semi-major axis) > 1.0 AU; q (perihelion) < 1.017 AU"
        }
    },
    "is_sentry_object": false
}